{"type": "FeatureCollection", "features": [ {"type": "Feature", "properties": {"norad_id": 33153, "name": "INTELSAT 25 (IS-25)", "group": "intelsat", "lat": 1.1119160613197039, "lon": 111.87006864166378, "alt_km": 35804.50927790843, "timestamp": "2025-12-16T03:53:26.726477+00:00", "meta": {"OBJECT_NAME": "INTELSAT 25 (IS-25)", "OBJECT_ID": "2008-034A", "EPOCH": "2025-12-15T06:23:18.435840", "MEAN_MOTION": 1.00271452, "ECCENTRICITY": 0.00048784, "INCLINATION": 2.2341, "RA_OF_ASC_NODE": 82.6236, "ARG_OF_PERICENTER": 182.2882, "MEAN_ANOMALY": 243.5951, "EPHEMERIS_TYPE": 0, "CLASSIFICATION_TYPE": "U", "NORAD_CAT_ID": 33153, "ELEMENT_SET_NO": 999, "REV_AT_EPOCH": 6385, "BSTAR": 0, "MEAN_MOTION_DOT": -2.04e-06, "MEAN_MOTION_DDOT": 0}, "tle": {"line1": "1 33153U 08034A   25349.26618560 -.00000204  00000+0  00000+0 0  9992", "line2": "2 33153   2.2341  82.6236 0004878 182.2882 243.5951  1.00271452 63857"}}, "geometry": {"type": "Point", "coordinates": [111.87006864166378, 1.1119160613197039]}}, {"type": "Feature", "properties": {"norad_id": 33376, "name": "GALAXY 19 (G-19)", "group": "intelsat", "lat": 0.03627907357341477, "lon": 46.42854961547475, "alt_km": 35794.70303007668, "timestamp": "2025-12-16T03:53:26.726490+00:00", "meta": {"OBJECT_NAME": "GALAXY 19 (G-19)", "OBJECT_ID": "2008-045A", "EPOCH": "2025-12-15T08:01:38.431776", "MEAN_MOTION": 1.00271236, "ECCENTRICITY": 0.00025834, "INCLINATION": 0.0281, "RA_OF_ASC_NODE": 276.2802, "ARG_OF_PERICENTER": 349.6733, "MEAN_ANOMALY": 201.7024, "EPHEMERIS_TYPE": 0, "CLASSIFICATION_TYPE": "U", "NORAD_CAT_ID": 33376, "ELEMENT_SET_NO": 999, "REV_AT_EPOCH": 6306, "BSTAR": 0, "MEAN_MOTION_DOT": -1.18e-06, "MEAN_MOTION_DDOT": 0}, "tle": {"line1": "1 33376U 08045A   25349.33447259 -.00000118  00000+0  00000+0 0  9998", "line2": "2 33376   0.0281 276.2802 0002583 349.6733 201.7024  1.00271236 63068"}}, "geometry": {"type": "Point", "coordinates": [46.42854961547475, 0.03627907357341477]}}, {"type": "Feature", "properties": {"norad_id": 35493, "name": "FM-5", "group": "intelsat", "lat": 0.03357091809430762, "lon": 57.25578165790457, "alt_km": 35786.702612208064, "timestamp": "2025-12-16T03:53:26.726502+00:00", "meta": {"OBJECT_NAME": "FM-5", "OBJECT_ID": "2009-034A", "EPOCH": "2025-12-15T08:19:38.704800", "MEAN_MOTION": 1.00271556, "ECCENTRICITY": 8.439e-05, "INCLINATION": 0.0212, "RA_OF_ASC_NODE": 288.9779, "ARG_OF_PERICENTER": 226.6098, "MEAN_ANOMALY": 327.4365, "EPHEMERIS_TYPE": 0, "CLASSIFICATION_TYPE": "U", "NORAD_CAT_ID": 35493, "ELEMENT_SET_NO": 999, "REV_AT_EPOCH": 4480, "BSTAR": 0, "MEAN_MOTION_DOT": -1.79e-06, "MEAN_MOTION_DDOT": 0}, "tle": {"line1": "1 35493U 09034A   25349.34697575 -.00000179  00000+0  00000+0 0  9995", "line2": "2 35493   0.0212 288.9779 0000843 226.6098 327.4365  1.00271556 44802"}}, "geometry": {"type": "Point", "coordinates": [57.25578165790457, 0.03357091809430762]}}, {"type": "Feature", "properties": {"norad_id": 36097, "name": "INTELSAT 14 (IS-14)", "group": "intelsat", "lat": 0.031328178134353644, "lon": 98.40789117618036, "alt_km": 35796.34853481209, "timestamp": "2025-12-16T03:53:26.726514+00:00", "meta": {"OBJECT_NAME": "INTELSAT 14 (IS-14)", "OBJECT_ID": "2009-064A", "EPOCH": "2025-12-15T04:36:51.131808", "MEAN_MOTION": 1.00271564, "ECCENTRICITY": 0.00024, "INCLINATION": 0.0226, "RA_OF_ASC_NODE": 48.9766, "ARG_OF_PERICENTER": 223.4866, "MEAN_ANOMALY": 195.8561, "EPHEMERIS_TYPE": 0, "CLASSIFICATION_TYPE": "U", "NORAD_CAT_ID": 36097, "ELEMENT_SET_NO": 999, "REV_AT_EPOCH": 5876, "BSTAR": 0, "MEAN_MOTION_DOT": -2.53e-06, "MEAN_MOTION_DDOT": 0}, "tle": {"line1": "1 36097U 09064A   25349.19225847 -.00000253  00000+0  00000+0 0  9994", "line2": "2 36097   0.0226  48.9766 0002400 223.4866 195.8561  1.00271564 58761"}}, "geometry": {"type": "Point", "coordinates": [98.40789117618036, 0.031328178134353644]}}, {"type": "Feature", "properties": {"norad_id": 36106, "name": "INTELSAT 15 (IS-15)", "group": "intelsat", "lat": -0.03240886740678138, "lon": -131.45598093241927, "alt_km": 35779.431173762474, "timestamp": "2025-12-16T03:53:26.726527+00:00", "meta": {"OBJECT_NAME": "INTELSAT 15 (IS-15)", "OBJECT_ID": "2009-067A", "EPOCH": "2025-12-15T06:56:30.257376", "MEAN_MOTION": 1.00272007, "ECCENTRICITY": 0.00022201, "INCLINATION": 0.0128, "RA_OF_ASC_NODE": 308.4434, "ARG_OF_PERICENTER": 325.2607, "MEAN_ANOMALY": 359.7734, "EPHEMERIS_TYPE": 0, "CLASSIFICATION_TYPE": "U", "NORAD_CAT_ID": 36106, "ELEMENT_SET_NO": 999, "REV_AT_EPOCH": 3938, "BSTAR": 0, "MEAN_MOTION_DOT": -1.64e-06, "MEAN_MOTION_DDOT": 0}, "tle": {"line1": "1 36106U 09067A   25349.28923909 -.00000164  00000+0  00000+0 0  9993", "line2": "2 36106   0.0128 308.4434 0002220 325.2607 359.7734  1.00272007 39386"}}, "geometry": {"type": "Point", "coordinates": [-131.45598093241927, -0.03240886740678138]}}, {"type": "Feature", "properties": {"norad_id": 36131, "name": "DIRECTV 12", "group": "intelsat", "lat": -0.013289937688100913, "lon": 40.69522145018625, "alt_km": 35784.027373645, "timestamp": "2025-12-16T03:53:26.726539+00:00", "meta": {"OBJECT_NAME": "DIRECTV 12", "OBJECT_ID": "2009-075A", "EPOCH": "2025-12-15T08:01:38.431776", "MEAN_MOTION": 1.00271984, "ECCENTRICITY": 5.577e-05, "INCLINATION": 0.0478, "RA_OF_ASC_NODE": 144.9649, "ARG_OF_PERICENTER": 224.7153, "MEAN_ANOMALY": 92.2556, "EPHEMERIS_TYPE": 0, "CLASSIFICATION_TYPE": "U", "NORAD_CAT_ID": 36131, "ELEMENT_SET_NO": 999, "REV_AT_EPOCH": 4471, "BSTAR": 0, "MEAN_MOTION_DOT": -8.2e-07, "MEAN_MOTION_DDOT": 0}, "tle": {"line1": "1 36131U 09075A   25349.33447259 -.00000082  00000+0  00000+0 0  9994", "line2": "2 36131   0.0478 144.9649 0000557 224.7153  92.2556  1.00271984 44710"}}, "geometry": {"type": "Point", "coordinates": [40.69522145018625, -0.013289937688100913]}}, {"type": "Feature", "properties": {"norad_id": 36397, "name": "INTELSAT 16 (IS-16)", "group": "intelsat", "lat": 0.03269737567129827, "lon": 67.21781459493084, "alt_km": 35793.9637333724, "timestamp": "2025-12-16T03:53:26.726551+00:00", "meta": {"OBJECT_NAME": "INTELSAT 16 (IS-16)", "OBJECT_ID": "2010-006A", "EPOCH": "2025-12-15T06:10:34.654656", "MEAN_MOTION": 1.00271501, "ECCENTRICITY": 0.00019374, "INCLINATION": 0.0114, "RA_OF_ASC_NODE": 320.417, "ARG_OF_PERICENTER": 306.5663, "MEAN_ANOMALY": 193.6311, "EPHEMERIS_TYPE": 0, "CLASSIFICATION_TYPE": "U", "NORAD_CAT_ID": 36397, "ELEMENT_SET_NO": 999, "REV_AT_EPOCH": 5781, "BSTAR": 0, "MEAN_MOTION_DOT": -2.24e-06, "MEAN_MOTION_DDOT": 0}, "tle": {"line1": "1 36397U 10006A   25349.25734554 -.00000224  00000+0  00000+0 0  9990", "line2": "2 36397   0.0114 320.4170 0001937 306.5663 193.6311  1.00271501 57814"}}, "geometry": {"type": "Point", "coordinates": [67.21781459493084, 0.03269737567129827]}}, {"type": "Feature", "properties": {"norad_id": 37185, "name": "XM-5", "group": "intelsat", "lat": 0.06981838458651372, "lon": 28.200553034131126, "alt_km": 35789.9003388521, "timestamp": "2025-12-16T03:53:26.726563+00:00", "meta": {"OBJECT_NAME": "XM-5", "OBJECT_ID": "2010-053A", "EPOCH": "2025-12-15T00:53:38.487264", "MEAN_MOTION": 1.0027191, "ECCENTRICITY": 0.00019003, "INCLINATION": 0.0635, "RA_OF_ASC_NODE": 272.1788, "ARG_OF_PERICENTER": 235.4435, "MEAN_ANOMALY": 194.5481, "EPHEMERIS_TYPE": 0, "CLASSIFICATION_TYPE": "U", "NORAD_CAT_ID": 37185, "ELEMENT_SET_NO": 999, "REV_AT_EPOCH": 5563, "BSTAR": 0, "MEAN_MOTION_DOT": -3e-08, "MEAN_MOTION_DDOT": 0}, "tle": {"line1": "1 37185U 10053A   25349.03725101 -.00000003  00000+0  00000+0 0  9997", "line2": "2 37185   0.0635 272.1788 0001900 235.4435 194.5481  1.00271910 55633"}}, "geometry": {"type": "Point", "coordinates": [28.200553034131126, 0.06981838458651372]}}, {"type": "Feature", "properties": {"norad_id": 37238, "name": "INTELSAT 17 (IS-17)", "group": "intelsat", "lat": -0.02640614426643833, "lon": -150.61216222473652, "alt_km": 35780.49567995079, "timestamp": "2025-12-16T03:53:26.726575+00:00", "meta": {"OBJECT_NAME": "INTELSAT 17 (IS-17)", "OBJECT_ID": "2010-065B", "EPOCH": "2025-12-15T05:08:25.609056", "MEAN_MOTION": 1.00271524, "ECCENTRICITY": 0.00025383, "INCLINATION": 0.0139, "RA_OF_ASC_NODE": 285.5856, "ARG_OF_PERICENTER": 342.3716, "MEAN_ANOMALY": 319.2786, "EPHEMERIS_TYPE": 0, "CLASSIFICATION_TYPE": "U", "NORAD_CAT_ID": 37238, "ELEMENT_SET_NO": 999, "REV_AT_EPOCH": 5140, "BSTAR": 0, "MEAN_MOTION_DOT": 1.9e-07, "MEAN_MOTION_DDOT": 0}, "tle": {"line1": "1 37238U 10065B   25349.21418529  .00000019  00000+0  00000+0 0  9998", "line2": "2 37238   0.0139 285.5856 0002538 342.3716 319.2786  1.00271524 51409"}}, "geometry": {"type": "Point", "coordinates": [-150.61216222473652, -0.02640614426643833]}}, {"type": "Feature", "properties": {"norad_id": 37392, "name": "INTELSAT 28 (IS-28)", "group": "intelsat", "lat": 0.6170612977573671, "lon": 111.71249364364338, "alt_km": 35800.120838304276, "timestamp": "2025-12-16T03:53:26.726587+00:00", "meta": {"OBJECT_NAME": "INTELSAT 28 (IS-28)", "OBJECT_ID": "2011-016A", "EPOCH": "2025-12-15T06:23:18.435840", "MEAN_MOTION": 1.00272741, "ECCENTRICITY": 0.00036702, "INCLINATION": 1.331, "RA_OF_ASC_NODE": 85.0282, "ARG_OF_PERICENTER": 183.8509, "MEAN_ANOMALY": 239.4456, "EPHEMERIS_TYPE": 0, "CLASSIFICATION_TYPE": "U", "NORAD_CAT_ID": 37392, "ELEMENT_SET_NO": 999, "REV_AT_EPOCH": 5144, "BSTAR": 0, "MEAN_MOTION_DOT": -2.04e-06, "MEAN_MOTION_DDOT": 0}, "tle": {"line1": "1 37392U 11016A   25349.26618560 -.00000204  00000+0  00000+0 0  9995", "line2": "2 37392   1.3310  85.0282 0003670 183.8509 239.4456  1.00272741 51440"}}, "geometry": {"type": "Point", "coordinates": [111.71249364364338, 0.6170612977573671]}}]}